      2.10          N: GNSS NAV DATA                        RINEX VERSION / TYPE
fic2rin                                 10/15/2021 00:17:42 PGM / RUN BY / DATE
                                                            END OF HEADER
17 21 10 14 11 59 44.0 5.190162919462e-04 5.343281372916e-12 0.000000000000e+00
    0.000000000000e+00 6.075000000000e+01 4.029096399466e-09-1.162843878121e+00
    3.445893526077e-06 1.364813919645e-02 8.815899491310e-06 5.153683549881e+03
    3.887840000000e+05-2.048909664154e-07-6.557857969336e-01 2.291053533554e-07
    9.810837998382e-01 2.258125000000e+02-1.549582528321e+00-7.937830642508e-09
    7.000291590243e-11 1.000000000000e+00 2.179000000000e+03 0.000000000000e+00
    2.400000000000e+00 0.000000000000e+00-1.117587089539e-08 0.000000000000e+00
    3.822000000000e+05 4.000000000000e+00
17 21 10 14 13 59 44.0 5.190554074943e-04 5.343281372916e-12 0.000000000000e+00
    2.000000000000e+00 6.843750000000e+01 3.915163082257e-09-1.126331116441e-01
    3.406777977943e-06 1.364948553964e-02 9.102746844292e-06 5.153686256409e+03
    3.959840000000e+05-2.477318048477e-07-6.558436026785e-01 1.676380634308e-08
    9.810842504170e-01 2.175625000000e+02-1.549622477688e+00-8.012476608955e-09
    6.893144269984e-11 1.000000000000e+00 2.179000000000e+03 0.000000000000e+00
    2.400000000000e+00 0.000000000000e+00-1.117587089539e-08 2.000000000000e+00
    3.888000000000e+05 4.000000000000e+00
 2 21 10 14 14  0  0.0-6.373906508088e-04-1.818989403546e-12 0.000000000000e+00
    8.000000000000e+00 3.946875000000e+01 4.458399995970e-09-2.140601899016e+00
    2.399086952209e-06 2.034421230201e-02 3.451481461525e-06 5.153777221680e+03
    3.960000000000e+05 2.644956111908e-07 2.542921140244e-01 2.533197402954e-07
    9.644922943812e-01 3.098125000000e+02-1.487855924429e+00-7.920687071267e-09
    3.235849071817e-10 1.000000000000e+00 2.179000000000e+03 0.000000000000e+00
    2.400000000000e+00 0.000000000000e+00-1.769512891769e-08 8.000000000000e+00
    3.888000000000e+05 4.000000000000e+00
 1 21 10 14 14  0  0.0 5.395733751357e-04-1.080024958355e-11 0.000000000000e+00
    7.900000000000e+01 2.371875000000e+01 4.166244969397e-09-2.384206605032e+00
    1.069158315659e-06 1.106622535735e-02 3.321096301079e-06 5.153674402237e+03
    3.960000000000e+05 1.043081283569e-07 3.409460534745e-01-1.080334186554e-07
    9.859788378391e-01 3.283750000000e+02 8.900578433961e-01-7.984618305688e-09
    3.432285825624e-10 1.000000000000e+00 2.179000000000e+03 0.000000000000e+00
    3.400000000000e+00 0.000000000000e+00 5.122274160385e-09 7.900000000000e+01
    3.888000000000e+05 4.000000000000e+00
16 21 10 14 14  0  0.0-4.069251008332e-04-6.366462912410e-12 0.000000000000e+00
    9.000000000000e+00 2.334375000000e+01 4.246605459591e-09 7.181168551695e-01
    1.389533281326e-06 1.229627907742e-02 7.687136530876e-06 5.153771322250e+03
    3.960000000000e+05-1.005828380585e-07-1.674261428852e+00 1.359730958939e-07
    9.716034031131e-01 2.376875000000e+02 6.796094968520e-01-8.012833766689e-09
   -4.893060958486e-10 1.000000000000e+00 2.179000000000e+03 0.000000000000e+00
    2.400000000000e+00 0.000000000000e+00-1.024454832077e-08 9.000000000000e+00
    3.888000000000e+05 4.000000000000e+00
 9 21 10 14 14  0  0.0-3.618062473834e-04-1.136868377216e-13 0.000000000000e+00
    9.000000000000e+00-4.531250000000e+01 4.557332688342e-09 2.760526357060e-01
   -2.376735210419e-06 2.262567519210e-03 1.071766018867e-05 5.153697015762e+03
    3.960000000000e+05-1.117587089539e-08 2.406538286505e+00 4.284083843231e-08
    9.537831664287e-01 1.686562500000e+02 1.819403062789e+00-7.954259898281e-09
    1.571494030463e-10 1.000000000000e+00 2.179000000000e+03 0.000000000000e+00
    2.400000000000e+00 0.000000000000e+00 1.396983861923e-09 9.000000000000e+00
    3.888000000000e+05 4.000000000000e+00
 5 21 10 14 14  0  0.0-5.763908848166e-05-1.250555214938e-12 0.000000000000e+00
    9.000000000000e+01-8.459375000000e+01 4.783413534088e-09 2.321729828452e-01
   -4.269182682037e-06 6.055070087314e-03 5.474314093590e-06 5.153601280212e+03
    3.960000000000e+05-4.284083843231e-08 1.338423595652e+00 2.980232238770e-08
    9.576399231924e-01 2.719062500000e+02 1.009340129834e+00-8.351419298707e-09
   -9.607543049875e-11 1.000000000000e+00 2.179000000000e+03 0.000000000000e+00
    2.400000000000e+00 0.000000000000e+00-1.117587089539e-08 9.000000000000e+01
    3.888000000000e+05 4.000000000000e+00
 3 21 10 14 14  0  0.0-3.246502019465e-04-1.375610736432e-11 0.000000000000e+00
    5.600000000000e+01-1.101562500000e+02 4.401969073967e-09 2.746665544731e+00
   -5.731359124184e-06 3.882474265993e-03 6.021931767464e-06 5.153756570816e+03
    3.960000000000e+05-2.607703208923e-08 1.377167854535e+00-6.332993507385e-08
    9.706501715443e-01 2.660312500000e+02 9.995800100054e-01-8.041049227691e-09
   -1.300054152474e-10 1.000000000000e+00 2.179000000000e+03 0.000000000000e+00
    2.400000000000e+00 0.000000000000e+00 1.862645149231e-09 5.600000000000e+01
    3.888000000000e+05 4.000000000000e+00
 4 21 10 14 14  0  0.0-2.036513760686e-04 4.547473508865e-13 0.000000000000e+00
    1.670000000000e+02-4.031250000000e+01 4.369467720155e-09-5.694676659398e-01
   -2.184882760048e-06 1.451917923987e-03 1.078844070435e-05 5.153690467834e+03
    3.960000000000e+05 3.725290298462e-08 2.458489973153e+00 2.048909664154e-08
    9.608920295814e-01 1.717812500000e+02-3.099599206840e+00-7.809611015932e-09
    1.553636143753e-10 1.000000000000e+00 2.179000000000e+03 0.000000000000e+00
    2.400000000000e+00 0.000000000000e+00-4.190951585770e-09 9.350000000000e+02
    3.888000000000e+05 4.000000000000e+00
12 21 10 14 14  0  0.0-1.114434562624e-04-5.456968210638e-12 0.000000000000e+00
    5.900000000000e+01 1.300000000000e+01 4.174102439550e-09 2.564712933262e+00
    6.426125764847e-07 8.265044656582e-03 7.707625627518e-06 5.153666332245e+03
    3.960000000000e+05 7.636845111847e-08-1.692957878857e+00-3.352761268616e-08
    9.715997209483e-01 2.339375000000e+02 1.228871847376e+00-7.761037564081e-09
   -3.321566928024e-10 1.000000000000e+00 2.179000000000e+03 0.000000000000e+00
    2.400000000000e+00 0.000000000000e+00-1.257285475731e-08 5.900000000000e+01
    3.888000000000e+05 4.000000000000e+00
10 21 10 14 14  0  0.0-2.237777225673e-04-8.071765478235e-12 0.000000000000e+00
    4.800000000000e+01-8.700000000000e+01 4.488401245642e-09 1.944835753804e+00
   -4.483386874199e-06 7.058090530336e-03 6.303191184998e-06 5.153678651810e+03
    3.960000000000e+05-2.197921276093e-07 1.374334944395e+00 7.823109626770e-08
    9.704999137655e-01 2.651562500000e+02-2.585052749366e+00-8.127124241632e-09
   -6.071681481333e-11 1.000000000000e+00 2.179000000000e+03 0.000000000000e+00
    2.400000000000e+00 0.000000000000e+00 2.328306436539e-09 4.800000000000e+01
    3.888000000000e+05 4.000000000000e+00
 8 21 10 14 14  0  0.0-4.008179530501e-05-1.477928890381e-12 0.000000000000e+00
    5.300000000000e+01 6.668750000000e+01 4.183031382905e-09-4.816111229793e-02
    3.466382622719e-06 6.601639906876e-03 8.389353752136e-06 5.153671876907e+03
    3.960000000000e+05 1.117587089539e-07-7.358796152654e-01-1.117587089539e-08
    9.660716153891e-01 2.197812500000e+02 5.349093540360e-02-8.064264480413e-09
   -2.000083311498e-11 1.000000000000e+00 2.179000000000e+03 0.000000000000e+00
    2.400000000000e+00 0.000000000000e+00 5.122274160385e-09 5.300000000000e+01
    3.888000000000e+05 4.000000000000e+00
 6 21 10 14 14  0  0.0 9.447382763028e-05 8.185452315956e-12 0.000000000000e+00
    3.200000000000e+01 2.725000000000e+01 4.214104105780e-09-2.010178745316e+00
    1.532956957817e-06 2.248183125630e-03 3.973022103310e-06 5.153592840195e+03
    3.960000000000e+05-7.450580596924e-08 3.326944494192e-01 8.568167686462e-08
    9.853968612317e-01 3.165625000000e+02-1.032593350218e+00-8.056049852527e-09
    2.471531520637e-10 1.000000000000e+00 2.179000000000e+03 0.000000000000e+00
    2.400000000000e+00 0.000000000000e+00 3.725290298462e-09 3.200000000000e+01
    3.888000000000e+05 4.000000000000e+00
 7 21 10 14 14  0  0.0 2.622911706567e-04 6.252776074689e-12 0.000000000000e+00
    9.500000000000e+01 3.556250000000e+01 4.819486465242e-09-3.008829853543e+00
    1.687556505203e-06 1.527730666567e-02 7.050111889839e-06 5.153726251602e+03
    3.960000000000e+05 3.352761268616e-08-2.804875681233e+00-2.160668373108e-07
    9.516144240233e-01 2.361562500000e+02-2.303990609634e+00-7.876756669960e-09
    1.467918287546e-10 1.000000000000e+00 2.179000000000e+03 0.000000000000e+00
    2.400000000000e+00 0.000000000000e+00-1.117587089539e-08 9.500000000000e+01
    3.888000000000e+05 4.000000000000e+00
11 21 10 14 14  0  0.0 2.178642898798e-05 5.684341886081e-13 0.000000000000e+00
    1.910000000000e+02 2.168750000000e+01 4.749840707074e-09 3.848421963479e-01
    1.162290573120e-06 4.632050404325e-04 3.544613718987e-06 5.153714752197e+03
    3.960000000000e+05 0.000000000000e+00 3.875781062410e-01 3.725290298462e-08
    9.609779423714e-01 3.110625000000e+02 2.288819626890e+00-8.327132572782e-09
    2.385813664430e-10 1.000000000000e+00 2.179000000000e+03 0.000000000000e+00
    6.144000000000e+03 6.300000000000e+01-8.381903171539e-09 4.470000000000e+02
    3.888000000000e+05 4.000000000000e+00
29 21 10 14 14  0  0.0-4.261271096766e-04-5.570655048359e-12 0.000000000000e+00
    4.900000000000e+01 5.434375000000e+01 3.786229140213e-09-1.347198113923e-01
    2.745538949966e-06 1.896905945614e-03 8.007511496544e-06 5.153572557449e+03
    3.960000000000e+05-1.862645149231e-09-6.431016491136e-01-1.676380634308e-08
    9.830348585705e-01 2.344375000000e+02 2.369837926062e+00-7.790681656019e-09
    3.821587755898e-11 1.000000000000e+00 2.179000000000e+03 0.000000000000e+00
    2.400000000000e+00 0.000000000000e+00-1.024454832077e-08 4.900000000000e+01
    3.888000000000e+05 4.000000000000e+00
